GALAXY 25               
1 24812C 97026A   22010.00000000  .00000088  00000-0  00000-0 0   106
2 24812   3.3003  85.2447 0004845 189.3821 260.9718  1.00271501    12
GALAXY 25               
1 24812C 97026A   22013.00000000  .00000088  00000-0  00000-0 0   132
2 24812   3.3090  85.2050 0004835 193.9236 259.4333  1.00272480    11
GALAXY 25           [PM]
1 24812C 97026A   22016.98848380  .00000087  00000-0  00000-0 0   165
2 24812   3.3185  85.2233 0004762 198.4125 254.7301  1.00271120    18
INTELSAT 5              
1 24916C 97046A   22010.00000000  .00000185  00000-0  00000-0 0   101
2 24916   6.8926  62.1417 0006219 201.5529  68.7980  1.00270349    13
INTELSAT 5              
1 24916C 97046A   22013.00000000  .00000185  00000-0  00000-0 0   137
2 24916   6.9001  62.1254 0006278 201.8929  71.4454  1.00268226    17
INTELSAT 5          [PM]
1 24916C 97046A   22014.73098380  .00000185  00000-0  00000-0 0   147
2 24916   6.9038  62.1040 0006254 235.4582 302.7277  1.00273617    15
GALAXY 11               
1 26038C 99071A   22009.91378472 -.00000072  00000-0  00000-0 0    91
2 26038   2.6192  89.7654 0000284 123.7434 131.7357  1.00270729    14
GALAXY 11               
1 26038C 99071A   22013.00000000 -.00000072  00000-0  00000-0 0   130
2 26038   2.6273  89.7162 0000406 136.8933 152.7191  1.00270920    15
INTELSAT 9              
1 26451C 00043A   22010.00000000 -.00000191  00000-0  00000-0 0   106
2 26451   6.8797  62.2885 0002438 161.2224 195.9598  1.00273760    16
INTELSAT 9              
1 26451C 00043A   22013.00000000 -.00000191  00000-0  00000-0 0   132
2 26451   6.8868  62.2715 0002194 164.9667 195.1810  1.00273138    15
INTELSAT 9          [PM]
1 26451C 00043A   22014.76541667 -.00000191  00000-0  00000-0 0   146
2 26451   6.8901  62.2848 0004964 196.1753  81.2836  1.00270594    16
INTELSAT 1R             
1 26608C 00072A   22009.91378472 -.00000047  00000-0  00000-0 0    99
2 26608   4.0428  81.6244 0000763 320.2561 193.5802  1.00270847    10
INTELSAT 1R             
1 26608C 00072A   22013.00000000 -.00000047  00000-0  00000-0 0   138
2 26608   4.0530  81.5664 0000759 282.0779 265.8934  1.00272532    12
INTELSAT 10             
1 26766C 01019A   22010.00000000  .00000127  00000-0  00000-0 0   107
2 26766   5.2059  74.6770 0004678 222.8089 349.7637  1.00273703    10
INTELSAT 10             
1 26766C 01019A   22013.00000000  .00000127  00000-0  00000-0 0   133
2 26766   5.2141  74.6511 0004789 224.5991 350.9643  1.00274775    10
INTELSAT 10         [PM]
1 26766C 01019A   22015.64648148  .00000127  00000-0  00000-0 0   158
2 26766   5.2204  74.6711 0003037 240.7860 210.1328  1.00270181    16
INTELSAT 901            
1 26824C 01024A   22010.00000000 -.00000112  00000-0  00000-0 0   103
2 26824   0.0415 260.4375 0001184  46.9385 134.6209  1.00270783    14
INTELSAT 901            
1 26824C 01024A   22013.00000000 -.00000080  00000-0  00000-0 0   133
2 26824   0.0404 263.4019 0001158  37.6991 143.8451  1.00270584    11
INTELSAT 902            
1 26900C 01039A   22010.00000000 -.00000192  00000-0  00000-0 0   102
2 26900   2.0102  90.7233 0003367 198.5331 130.1258  1.00276189    12
INTELSAT 902            
1 26900C 01039A   22013.00000000 -.00000192  00000-0  00000-0 0   138
2 26900   2.0190  90.6669 0003374 200.3360 131.3499  1.00272298    10
INTELSAT 902        [PM]
1 26900C 01039A   22017.93600694 -.00000192  00000-0  00000-0 0   173
2 26900   2.0307  90.7232 0003553 205.4072 108.0449  1.00272240    15
INTELSAT 904            
1 27380C 02007A   22010.00000000 -.00000123  00000-0  00000-0 0   105
2 27380   2.8435  87.6078 0003194 205.3715 146.9920  1.00273327    17
INTELSAT 904            
1 27380C 02007A   22013.00000000 -.00000123  00000-0  00000-0 0   131
2 27380   2.8522  87.5644 0003286 210.6984 144.6760  1.00273113    11
INTELSAT 904        [PM]
1 27380C 02007A   22015.82140046 -.00000123  00000-0  00000-0 0   150
2 27380   2.8587  83.2355 0003483 204.4820  93.7070  1.00272540    14
INTELSAT 905            
1 27438C 02027A   22010.00000000 -.00000094  00000-0  00000-0 0   108
2 27438   2.6657  88.3839 0002828 194.3041 162.2973  1.00272315    15
INTELSAT 905            
1 27438C 02027A   22013.00000000 -.00000094  00000-0  00000-0 0   134
2 27438   2.6747  88.3359 0002862 200.6638 158.9419  1.00272210    14
INTELSAT 905        [PM]
1 27438C 02027A   22016.83125000 -.00000094  00000-0  00000-0 0   169
2 27438   2.6839  87.6030 0003135 200.1582 103.2118  1.00273079    14
GALAXY 3C               
1 27445C 02030A   22009.91378472 -.00000062  00000-0  00000-0 0    92
2 27445   0.0202 322.3841 0002048  11.9464   8.9937  1.00268816    19
GALAXY 3C               
1 27445C 02030A   22013.00000000 -.00000063  00000-0  00000-0 0   132
2 27445   0.0172 334.1961 0001740 353.6585  49.5521  1.00270812    16
INTELSAT 906            
1 27513C 02041A   22010.00000000  .00000105  00000-0  00000-0 0   100
2 27513   1.6771  92.3367 0003427 205.2529 236.0174  1.00271899    14
INTELSAT 906            
1 27513C 02041A   22013.00000000  .00000105  00000-0  00000-0 0   136
2 27513   1.6858  92.2673 0003570 209.7527 234.5474  1.00272858    17
INTELSAT 906        [PM]
1 27513C 02041A   22018.05219907  .00000105  00000-0  00000-0 0   189
2 27513   1.6980  92.3513 0003651 214.2792 253.7426  1.00270270    18
GALAXY 12               
1 27715C 03013B   22010.00000000  .00000149  00000-0  00000-0 0   102
2 27715   2.8786  87.1915 0002596 209.2843  44.0038  1.00272646    14
GALAXY 12               
1 27715C 03013B   22013.00000000  .00000149  00000-0  00000-0 0   138
2 27715   2.8868  87.1360 0002628 208.9737  47.3314  1.00270670    11
GALAXY 12           [PM]
1 27715C 03013B   22018.57835648  .00000149  00000-0  00000-0 0   184
2 27715   2.8991  87.1761 0002264 231.5744 238.3998  1.00270548    13
GALAXY 23               
1 27854C 03034A   22010.00000000  .00000097  00000-0  00000-0 0   101
2 27854   0.0396 243.4068 0003116  43.1230  61.9419  1.00272326    11
GALAXY 23               
1 27854C 03034A   22013.00000000  .00000095  00000-0  00000-0 0   135
2 27854   0.0375 248.7040 0003285  41.2790  61.4573  1.00271267    12
GALAXY 23           [PM]
1 27854C 03034A   22019.77667824  .00000103  00000-0  00000-0 0   194
2 27854   0.0690 259.1431 0003495  42.6071 335.9828  1.00268807    10
GALAXY 13           [PM]
1 27954C 03044A   22009.96037037  .00000137  00000-0  00000-0 0    99
2 27954   0.0007  71.7181 0002169 114.9429 141.5021  1.00270384    19
GALAXY 13               
1 27954C 03044A   22010.00000000  .00000141  00000-0  00000-0 0   103
2 27954   0.0001  54.0595 0002346 141.8270 146.5849  1.00269063    11
GALAXY 13               
1 27954C 03044A   22013.00000000  .00000141  00000-0  00000-0 0   139
2 27954   0.0007  50.7780 0000867 165.4323 129.2128  1.00270083    15
INTELSAT 10-02          
1 28358C 04022A   22009.91378472  .00000079  00000-0  00000-0 0    96
2 28358   0.0428 258.5151 0001173  47.1371 131.7042  1.00270547    19
INTELSAT 10-02          
1 28358C 04022A   22013.00000000  .00000079  00000-0  00000-0 0   135
2 28358   0.0485 262.5237 0001176  41.5148 167.4041  1.00271286    11
GALAXY 28               
1 28702C 05022A   22009.91378472 -.00000095  00000-0  00000-0 0    99
2 28702   0.0239 308.1285 0002117  16.7600  24.4843  1.00270428    13
GALAXY 28               
1 28702C 05022A   22013.00000000 -.00000090  00000-0  00000-0 0   133
2 28702   0.0121 345.5032 0002292 334.8961  63.0309  1.00263661    13
GALAXY 28           [PM]
1 28702C 05022A   22013.23604167 -.00000095  00000-0  00000-0 0   137
2 28702   0.0240 314.5874 0002150 354.6097 159.4392  1.00267188    18
GALAXY 14               
1 28790C 05030A   22010.00000000  .00000246  00000-0  00000-0 0   105
2 28790   0.8650  93.7743 0002332 190.1856 218.4096  1.00273327    16
GALAXY 14               
1 28790C 05030A   22013.00000000  .00000246  00000-0  00000-0 0   131
2 28790   0.8737  93.6767 0002022 195.5522 216.1205  1.00269504    11
GALAXY 14           [PM]
1 28790C 05030A   22014.44791667  .00000246  00000-0  00000-0 0   147
2 28790   0.8780  93.7020 0002053 198.0743  16.2396  1.00269972    18
GALAXY 15               
1 28884C 05041A   22010.00000000  .00000169  00000-0  00000-0 0   105
2 28884   0.0114 351.7783 0001817 295.8456  48.8489  1.00271471    13
GALAXY 15               
1 28884C 05041A   22013.00000000  .00000169  00000-0  00000-0 0   131
2 28884   0.0324 308.0766 0002076 339.3341  52.0328  1.00270310    17
GALAXY 15           [PM]
1 28884C 05041A   22014.95943287  .00000169  00000-0  00000-0 0   140
2 28884   0.0256 321.9587 0002093 328.1700  36.6353  1.00270943    18
GALAXY 16               
1 29236C 06023A   22010.00000000 -.00000026  00000-0  00000-0 0   101
2 29236   0.0020 346.7826 0002929 307.6885  76.0056  1.00272003    11
GALAXY 16               
1 29236C 06023A   22013.00000000 -.00000032  00000-0  00000-0 0   134
2 29236   0.0001  43.2263 0002959 246.0437  84.1734  1.00271420    11
GALAXY 16           [PM]
1 29236C 06023A   22016.22420139 -.00004781  00000-0  00000-0 0   168
2 29236   0.0000  10.1366 0003069 284.8444 162.3467  1.00272160    12
GALAXY 17               
1 31307C 07016B   22010.00000000 -.00000084  00000-0  00000-0 0   100
2 31307   0.0096  21.5814 0003213 270.2236  86.6760  1.00271755    15
GALAXY 17               
1 31307C 07016B   22013.00000000 -.00000084  00000-0  00000-0 0   136
2 31307   0.0141  41.8879 0003338 256.0297  83.5206  1.00271679    15
GALAXY 17           [PM]
1 31307C 07016B   22017.20684028 -.00000084  00000-0  00000-0 0   174
2 31307   0.0189 337.4277 0003328 326.5926 156.0362  1.00270006    16
INTELSAT 11             
1 32253C 07044B   22010.00000000 -.00000173  00000-0  00000-0 0   101
2 32253   0.0031 351.3117 0002004 300.4364 134.7498  1.00271485    13
